STARLINK-3077           
1 49133U 21082D   24233.53099891  .00001258  00000+0  11323-3 0  9999
2 49133  69.9988 281.9434 0002929 271.0827  88.9997 14.98334473161173
STARLINK-3078           
1 49134U 21082E   24233.52682192  .00000888  00000+0  82171-4 0  9999
2 49134  69.9991 281.9580 0002855 267.6844  92.3988 14.98335149162371
STARLINK-3073           
1 49135U 21082F   24233.43039208  .00000260  00000+0  29547-4 0  9996
2 49135  69.9981 242.1783 0003043 269.4181  90.6629 14.98331710162158
STARLINK-3084           
1 49136U 21082G   24233.49321184  .00000478  00000+0  47884-4 0  9995
2 49136  69.9979 262.0322 0003040 273.4198  86.6614 14.98333540161674
STARLINK-3055           
1 49137U 21082H   24233.48903927 -.00000199  00000+0 -88405-5 0  9993
2 49137  69.9978 262.0461 0003066 269.8894  90.1913 14.98335825161667
STARLINK-3058           
1 49138U 21082J   24233.52265217  .00000609  00000+0  58867-4 0  9994
2 49138  69.9988 281.9686 0003123 270.1192  89.9610 14.98333725161171
STARLINK-3057           
1 49139U 21082K   24233.42204432  .00000668  00000+0  63799-4 0  9991
2 49139  69.9983 242.2046 0003090 268.5511  91.5294 14.98333410162142
STARLINK-3118           
1 49140U 21082L   24233.91667824  .00224557  00000+0  12230-2 0  9992
2 49140  69.9941 208.2015 0007149 244.9390 236.1611 15.79128856163011
STARLINK-3093           
1 49141U 21082M   24233.51847716  .00001415  00000+0  12637-3 0  9997
2 49141  69.9984 281.9828 0003294 271.4785  88.5997 14.98336692162372
STARLINK-3042           
1 49142U 21082N   24233.34278394 -.00000188  00000+0 -79711-5 0  9995
2 49142  69.9984 242.4149 0003395 281.1167  78.9610 14.98328272162139
STARLINK-3109           
1 49143U 21082P   24233.48486780 -.00000327  00000+0 -19567-4 0  9998
2 49143  69.9980 262.0607 0003030 268.3529  91.7282 14.98336549162772
STARLINK-3100           
1 49144U 21082Q   24233.57689236  .00000800  00000+0  74792-4 0  9995
2 49144  69.9992 281.8160 0002824 268.9656  91.1180 14.98334790161187
STARLINK-3119           
1 49145U 21082R   24233.45959829  .00000497  00000+0  49426-4 0  9999
2 49145  69.9990 242.1070 0002910 268.3852  91.6973 14.98332435162140
STARLINK-3116           
1 49146U 21082S   24233.48069223  .00000716  00000+0  67803-4 0  9996
2 49146  69.9975 262.0747 0003381 272.8476  87.2296 14.98334744162819
STARLINK-3071           
1 49147U 21082T   24233.33861291  .00005970  00000+0  50788-3 0  9996
2 49147  69.9982 242.4294 0003356 269.9587  90.1187 14.98316991162130
STARLINK-3048           
1 49148U 21082U   24233.47236314  .00002375  00000+0  20679-3 0  9996
2 49148  69.9979 262.0748 0003240 271.8271  88.2517 14.98328766161657
STARLINK-3053           
1 49149U 21082V   24233.50595948  .00001155  00000+0  10454-3 0  9997
2 49149  69.9992 282.0005 0002922 266.3224  93.7601 14.98337042162365
STARLINK-3104           
1 49150U 21082W   24233.56854698  .00001163  00000+0  10522-3 0  9990
2 49150  69.9989 281.8447 0003035 268.6526  91.4285 14.98335659162372
STARLINK-3102           
1 49151U 21082X   24233.45125310  .00000893  00000+0  82592-4 0  9997
2 49151  69.9982 242.1366 0003058 268.4887  91.5922 14.98332411163349
STARLINK-3081           
1 49152U 21082Y   24233.42621713  .00000684  00000+0  65102-4 0  9999
2 49152  69.9984 242.1915 0003052 270.3287  89.7522 14.98332409163265
STARLINK-3072           
1 49153U 21082Z   24233.44290780  .00000305  00000+0  33391-4 0  9993
2 49153  69.9983 242.1641 0003137 269.7033  90.3767 14.98337990163355
STARLINK-3068           
1 49154U 21082AA  24233.46816236 -.00003252  00000+0 -26489-3 0  9991
2 49154  69.9984 262.0892 0003184 270.6505  89.4289 14.98330897162731
STARLINK-3060           
1 49155U 21082AB  24233.43873648  .00000671  00000+0  64050-4 0  9996
2 49155  69.9983 242.1777 0003034 268.2318  91.8493 14.98335309163223
STARLINK-3085           
1 49156U 21082AC  24233.41789182 -.00000267  00000+0 -14550-4 0  9997
2 49156  69.9989 242.2190 0003178 265.5935  94.4861 14.98322601163223
STARLINK-3051           
1 49157U 21082AD  24233.46400349  .00000524  00000+0  51685-4 0  9992
2 49157  69.9985 262.1014 0002753 266.0672  94.0172 14.98334352162752
STARLINK-3083           
1 49158U 21082AE  24233.48942818  .00012127  00000+0  63829-3 0  9991
2 49158  69.9915 247.3706 0003212 300.8993  59.1858 15.15792902163127
STARLINK-3056           
1 49159U 21082AF  24233.56437236  .00001723  00000+0  15213-3 0  9998
2 49159  69.9986 281.8590 0003293 273.7879  86.2904 14.98338360162272
STARLINK-3095           
1 49160U 21082AG  24233.55186010  .00001760  00000+0  15523-3 0  9995
2 49160  69.9986 281.8754 0003263 273.6759  86.4027 14.98333845162258
STARLINK-3080           
1 49161U 21082AH  24233.55602931  .00001798  00000+0  15845-3 0  9999
2 49161  69.9984 281.8596 0003112 270.9120  89.1682 14.98333775162255
STARLINK-3082           
1 49162U 21082AJ  24233.55201963  .00001596  00000+0  14152-3 0  9996
2 49162  69.9991 281.9030 0002973 267.2481  92.8338 14.98338685162345
