OBJECT_NAME,OBJECT_ID,EPOCH,MEAN_MOTION,ECCENTRICITY,INCLINATION,RA_OF_ASC_NODE,ARG_OF_PERICENTER,MEAN_ANOMALY,EPHEMERIS_TYPE,CLASSIFICATION_TYPE,NORAD_CAT_ID,ELEMENT_SET_NO,REV_AT_EPOCH,BSTAR,MEAN_MOTION_DOT,MEAN_MOTION_DDOT
STARLINK-3077,2021-082D,2024-08-20T12:44:38.305824,14.98334473,.0002929,69.9988,281.9434,271.0827,88.9997,0,U,49133,999,16117,.11323E-3,.1258E-4,0
STARLINK-3078,2021-082E,2024-08-20T12:38:37.413888,14.98335149,.0002855,69.9991,281.9580,267.6844,92.3988,0,U,49134,999,16237,.82171E-4,.888E-5,0
STARLINK-3073,2021-082F,2024-08-20T10:19:45.875712,14.98331710,.0003043,69.9981,242.1783,269.4181,90.6629,0,U,49135,999,16215,.29547E-4,.26E-5,0
STARLINK-3084,2021-082G,2024-08-20T11:50:13.502976,14.98333540,.000304,69.9979,262.0322,273.4198,86.6614,0,U,49136,999,16167,.47884E-4,.478E-5,0
STARLINK-3055,2021-082H,2024-08-20T11:44:12.992928,14.98335825,.0003066,69.9978,262.0461,269.8894,90.1913,0,U,49137,999,16166,-.88405E-5,-.199E-5,0
STARLINK-3058,2021-082J,2024-08-20T12:32:37.147488,14.98333725,.0003123,69.9988,281.9686,270.1192,89.9610,0,U,49138,999,16117,.58867E-4,.609E-5,0
STARLINK-3057,2021-082K,2024-08-20T10:07:44.629248,14.98333410,.000309,69.9983,242.2046,268.5511,91.5294,0,U,49139,999,16214,.63799E-4,.668E-5,0
STARLINK-3118,2021-082L,2024-08-20T22:00:00.999936,15.79128856,.0007149,69.9941,208.2015,244.9390,236.1611,0,U,49140,999,16301,.1223E-2,.224557E-2,0
STARLINK-3093,2021-082M,2024-08-20T12:26:36.426624,14.98336692,.0003294,69.9984,281.9828,271.4785,88.5997,0,U,49141,999,16237,.12637E-3,.1415E-4,0
STARLINK-3042,2021-082N,2024-08-20T08:13:36.532416,14.98328272,.0003395,69.9984,242.4149,281.1167,78.9610,0,U,49142,999,16213,-.79711E-5,-.188E-5,0
STARLINK-3109,2021-082P,2024-08-20T11:38:12.577920,14.98336549,.000303,69.9980,262.0607,268.3529,91.7282,0,U,49143,999,16277,-.19567E-4,-.327E-5,0
STARLINK-3100,2021-082Q,2024-08-20T13:50:43.499904,14.98334790,.0002824,69.9992,281.8160,268.9656,91.1180,0,U,49144,999,16118,.74792E-4,.8E-5,0
STARLINK-3119,2021-082R,2024-08-20T11:01:49.292256,14.98332435,.000291,69.9990,242.1070,268.3852,91.6973,0,U,49145,999,16214,.49426E-4,.497E-5,0
STARLINK-3116,2021-082S,2024-08-20T11:32:11.808672,14.98334744,.0003381,69.9975,262.0747,272.8476,87.2296,0,U,49146,999,16281,.67803E-4,.716E-5,0
STARLINK-3071,2021-082T,2024-08-20T08:07:36.155424,14.98316991,.0003356,69.9982,242.4294,269.9587,90.1187,0,U,49147,999,16213,.50788E-3,.597E-4,0
STARLINK-3048,2021-082U,2024-08-20T11:20:12.175296,14.98328766,.000324,69.9979,262.0748,271.8271,88.2517,0,U,49148,999,16165,.20679E-3,.2375E-4,0
STARLINK-3053,2021-082V,2024-08-20T12:08:34.899072,14.98337042,.0002922,69.9992,282.0005,266.3224,93.7601,0,U,49149,999,16236,.10454E-3,.1155E-4,0
STARLINK-3104,2021-082W,2024-08-20T13:38:42.459072,14.98335659,.0003035,69.9989,281.8447,268.6526,91.4285,0,U,49150,999,16237,.10522E-3,.1163E-4,0
STARLINK-3102,2021-082X,2024-08-20T10:49:48.267840,14.98332411,.0003058,69.9982,242.1366,268.4887,91.5922,0,U,49151,999,16334,.82592E-4,.893E-5,0
STARLINK-3081,2021-082Y,2024-08-20T10:13:45.160032,14.98332409,.0003052,69.9984,242.1915,270.3287,89.7522,0,U,49152,999,16326,.65102E-4,.684E-5,0
STARLINK-3072,2021-082Z,2024-08-20T10:37:47.233920,14.98337990,.0003137,69.9983,242.1641,269.7033,90.3767,0,U,49153,999,16335,.33391E-4,.305E-5,0
STARLINK-3068,2021-082AA,2024-08-20T11:14:09.227904,14.98330897,.0003184,69.9984,262.0892,270.6505,89.4289,0,U,49154,999,16273,-.26489E-3,-.3252E-4,0
STARLINK-3060,2021-082AB,2024-08-20T10:31:46.831872,14.98335309,.0003034,69.9983,242.1777,268.2318,91.8493,0,U,49155,999,16322,.6405E-4,.671E-5,0
STARLINK-3085,2021-082AC,2024-08-20T10:01:45.853248,14.98322601,.0003178,69.9989,242.2190,265.5935,94.4861,0,U,49156,999,16322,-.1455E-4,-.267E-5,0
STARLINK-3051,2021-082AD,2024-08-20T11:08:09.901536,14.98334352,.0002753,69.9985,262.1014,266.0672,94.0172,0,U,49157,999,16275,.51685E-4,.524E-5,0
STARLINK-3083,2021-082AE,2024-08-20T11:44:46.594752,15.15792902,.0003212,69.9915,247.3706,300.8993,59.1858,0,U,49158,999,16312,.63829E-3,.12127E-3,0
STARLINK-3056,2021-082AF,2024-08-20T13:32:41.771904,14.98338360,.0003293,69.9986,281.8590,273.7879,86.2904,0,U,49159,999,16227,.15213E-3,.1723E-4,0
STARLINK-3095,2021-082AG,2024-08-20T13:14:40.712640,14.98333845,.0003263,69.9986,281.8754,273.6759,86.4027,0,U,49160,999,16225,.15523E-3,.176E-4,0
STARLINK-3080,2021-082AH,2024-08-20T13:20:40.932384,14.98333775,.0003112,69.9984,281.8596,270.9120,89.1682,0,U,49161,999,16225,.15845E-3,.1798E-4,0
STARLINK-3082,2021-082AJ,2024-08-20T13:14:54.496032,14.98338685,.0002973,69.9991,281.9030,267.2481,92.8338,0,U,49162,999,16234,.14152E-3,.1596E-4,0
